<?xml version="1.0" encoding="UTF-8"?>
<ndm xmlns:xsi="http://www.w3.org/2001/XMLSchema-instance" xsi:noNamespaceSchemaLocation="https://sanaregistry.org/r/ndmxml_unqualified/ndmxml-2.0.0-master-2.0.xsd">
<omm id="CCSDS_OMM_VERS" version="2.0">
<header><CREATION_DATE/><ORIGINATOR/></header><body><segment><metadata><OBJECT_NAME>ORBCOMM-X</OBJECT_NAME><OBJECT_ID>1991-050C</OBJECT_ID><CENTER_NAME>EARTH</CENTER_NAME><REF_FRAME>TEME</REF_FRAME><TIME_SYSTEM>UTC</TIME_SYSTEM><MEAN_ELEMENT_THEORY>SGP4</MEAN_ELEMENT_THEORY></metadata><data><meanElements><EPOCH>2025-07-03T04:24:54.168192</EPOCH><MEAN_MOTION>14.43272208</MEAN_MOTION><ECCENTRICITY>.0004632</ECCENTRICITY><INCLINATION>98.3428</INCLINATION><RA_OF_ASC_NODE>250.4571</RA_OF_ASC_NODE><ARG_OF_PERICENTER>127.4218</ARG_OF_PERICENTER><MEAN_ANOMALY>232.7394</MEAN_ANOMALY></meanElements><tleParameters><EPHEMERIS_TYPE>0</EPHEMERIS_TYPE><CLASSIFICATION_TYPE>U</CLASSIFICATION_TYPE><NORAD_CAT_ID>21576</NORAD_CAT_ID><ELEMENT_SET_NO>999</ELEMENT_SET_NO><REV_AT_EPOCH>78464</REV_AT_EPOCH><BSTAR>.79157E-4</BSTAR><MEAN_MOTION_DOT>.224E-5</MEAN_MOTION_DOT><MEAN_MOTION_DDOT>0</MEAN_MOTION_DDOT></tleParameters></data></segment></body></omm>
<omm id="CCSDS_OMM_VERS" version="2.0">
<header><CREATION_DATE/><ORIGINATOR/></header><body><segment><metadata><OBJECT_NAME>ORBCOMM FM01</OBJECT_NAME><OBJECT_ID>1995-017A</OBJECT_ID><CENTER_NAME>EARTH</CENTER_NAME><REF_FRAME>TEME</REF_FRAME><TIME_SYSTEM>UTC</TIME_SYSTEM><MEAN_ELEMENT_THEORY>SGP4</MEAN_ELEMENT_THEORY></metadata><data><meanElements><EPOCH>2025-07-03T01:00:00.335520</EPOCH><MEAN_MOTION>14.90199830</MEAN_MOTION><ECCENTRICITY>.0005356</ECCENTRICITY><INCLINATION>69.9641</INCLINATION><RA_OF_ASC_NODE>34.5958</RA_OF_ASC_NODE><ARG_OF_PERICENTER>274.9490</ARG_OF_PERICENTER><MEAN_ANOMALY>85.1053</MEAN_ANOMALY></meanElements><tleParameters><EPHEMERIS_TYPE>0</EPHEMERIS_TYPE><CLASSIFICATION_TYPE>U</CLASSIFICATION_TYPE><NORAD_CAT_ID>23545</NORAD_CAT_ID><ELEMENT_SET_NO>999</ELEMENT_SET_NO><REV_AT_EPOCH>61522</REV_AT_EPOCH><BSTAR>.41437E-3</BSTAR><MEAN_MOTION_DOT>.3939E-4</MEAN_MOTION_DOT><MEAN_MOTION_DDOT>0</MEAN_MOTION_DDOT></tleParameters></data></segment></body></omm>
<omm id="CCSDS_OMM_VERS" version="2.0">
<header><CREATION_DATE/><ORIGINATOR/></header><body><segment><metadata><OBJECT_NAME>ORBCOMM FM02</OBJECT_NAME><OBJECT_ID>1995-017B</OBJECT_ID><CENTER_NAME>EARTH</CENTER_NAME><REF_FRAME>TEME</REF_FRAME><TIME_SYSTEM>UTC</TIME_SYSTEM><MEAN_ELEMENT_THEORY>SGP4</MEAN_ELEMENT_THEORY></metadata><data><meanElements><EPOCH>2025-07-03T01:00:42.977376</EPOCH><MEAN_MOTION>14.91088514</MEAN_MOTION><ECCENTRICITY>.0006785</ECCENTRICITY><INCLINATION>69.9651</INCLINATION><RA_OF_ASC_NODE>53.9350</RA_OF_ASC_NODE><ARG_OF_PERICENTER>277.8807</ARG_OF_PERICENTER><MEAN_ANOMALY>82.1578</MEAN_ANOMALY></meanElements><tleParameters><EPHEMERIS_TYPE>0</EPHEMERIS_TYPE><CLASSIFICATION_TYPE>U</CLASSIFICATION_TYPE><NORAD_CAT_ID>23546</NORAD_CAT_ID><ELEMENT_SET_NO>999</ELEMENT_SET_NO><REV_AT_EPOCH>61482</REV_AT_EPOCH><BSTAR>.44276E-3</BSTAR><MEAN_MOTION_DOT>.4311E-4</MEAN_MOTION_DOT><MEAN_MOTION_DDOT>0</MEAN_MOTION_DDOT></tleParameters></data></segment></body></omm>
<omm id="CCSDS_OMM_VERS" version="2.0">
<header><CREATION_DATE/><ORIGINATOR/></header><body><segment><metadata><OBJECT_NAME>ORBCOMM FM08</OBJECT_NAME><OBJECT_ID>1997-084A</OBJECT_ID><CENTER_NAME>EARTH</CENTER_NAME><REF_FRAME>TEME</REF_FRAME><TIME_SYSTEM>UTC</TIME_SYSTEM><MEAN_ELEMENT_THEORY>SGP4</MEAN_ELEMENT_THEORY></metadata><data><meanElements><EPOCH>2025-07-03T13:21:25.835328</EPOCH><MEAN_MOTION>14.45847660</MEAN_MOTION><ECCENTRICITY>.0005962</ECCENTRICITY><INCLINATION>45.0147</INCLINATION><RA_OF_ASC_NODE>289.2832</RA_OF_ASC_NODE><ARG_OF_PERICENTER>311.8877</ARG_OF_PERICENTER><MEAN_ANOMALY>48.1465</MEAN_ANOMALY></meanElements><tleParameters><EPHEMERIS_TYPE>0</EPHEMERIS_TYPE><CLASSIFICATION_TYPE>U</CLASSIFICATION_TYPE><NORAD_CAT_ID>25112</NORAD_CAT_ID><ELEMENT_SET_NO>999</ELEMENT_SET_NO><REV_AT_EPOCH>44391</REV_AT_EPOCH><BSTAR>.27569E-3</BSTAR><MEAN_MOTION_DOT>.843E-5</MEAN_MOTION_DOT><MEAN_MOTION_DDOT>0</MEAN_MOTION_DDOT></tleParameters></data></segment></body></omm>
<omm id="CCSDS_OMM_VERS" version="2.0">
<header><CREATION_DATE/><ORIGINATOR/></header><body><segment><metadata><OBJECT_NAME>ORBCOMM FM10</OBJECT_NAME><OBJECT_ID>1997-084B</OBJECT_ID><CENTER_NAME>EARTH</CENTER_NAME><REF_FRAME>TEME</REF_FRAME><TIME_SYSTEM>UTC</TIME_SYSTEM><MEAN_ELEMENT_THEORY>SGP4</MEAN_ELEMENT_THEORY></metadata><data><meanElements><EPOCH>2025-07-03T07:59:08.890656</EPOCH><MEAN_MOTION>14.45635574</MEAN_MOTION><ECCENTRICITY>.0005569</ECCENTRICITY><INCLINATION>45.0160</INCLINATION><RA_OF_ASC_NODE>292.7661</RA_OF_ASC_NODE><ARG_OF_PERICENTER>274.9351</ARG_OF_PERICENTER><MEAN_ANOMALY>85.0864</MEAN_ANOMALY></meanElements><tleParameters><EPHEMERIS_TYPE>0</EPHEMERIS_TYPE><CLASSIFICATION_TYPE>U</CLASSIFICATION_TYPE><NORAD_CAT_ID>25113</NORAD_CAT_ID><ELEMENT_SET_NO>999</ELEMENT_SET_NO><REV_AT_EPOCH>44386</REV_AT_EPOCH><BSTAR>.27465E-3</BSTAR><MEAN_MOTION_DOT>.835E-5</MEAN_MOTION_DOT><MEAN_MOTION_DDOT>0</MEAN_MOTION_DDOT></tleParameters></data></segment></body></omm>
<omm id="CCSDS_OMM_VERS" version="2.0">
<header><CREATION_DATE/><ORIGINATOR/></header><body><segment><metadata><OBJECT_NAME>ORBCOMM FM11</OBJECT_NAME><OBJECT_ID>1997-084C</OBJECT_ID><CENTER_NAME>EARTH</CENTER_NAME><REF_FRAME>TEME</REF_FRAME><TIME_SYSTEM>UTC</TIME_SYSTEM><MEAN_ELEMENT_THEORY>SGP4</MEAN_ELEMENT_THEORY></metadata><data><meanElements><EPOCH>2025-07-03T08:09:43.375104</EPOCH><MEAN_MOTION>14.45384780</MEAN_MOTION><ECCENTRICITY>.0006255</ECCENTRICITY><INCLINATION>45.0144</INCLINATION><RA_OF_ASC_NODE>293.3928</RA_OF_ASC_NODE><ARG_OF_PERICENTER>278.7754</ARG_OF_PERICENTER><MEAN_ANOMALY>81.2388</MEAN_ANOMALY></meanElements><tleParameters><EPHEMERIS_TYPE>0</EPHEMERIS_TYPE><CLASSIFICATION_TYPE>U</CLASSIFICATION_TYPE><NORAD_CAT_ID>25114</NORAD_CAT_ID><ELEMENT_SET_NO>999</ELEMENT_SET_NO><REV_AT_EPOCH>44384</REV_AT_EPOCH><BSTAR>.28481E-3</BSTAR><MEAN_MOTION_DOT>.867E-5</MEAN_MOTION_DOT><MEAN_MOTION_DDOT>0</MEAN_MOTION_DDOT></tleParameters></data></segment></body></omm>
<omm id="CCSDS_OMM_VERS" version="2.0">
<header><CREATION_DATE/><ORIGINATOR/></header><body><segment><metadata><OBJECT_NAME>ORBCOMM FM12</OBJECT_NAME><OBJECT_ID>1997-084D</OBJECT_ID><CENTER_NAME>EARTH</CENTER_NAME><REF_FRAME>TEME</REF_FRAME><TIME_SYSTEM>UTC</TIME_SYSTEM><MEAN_ELEMENT_THEORY>SGP4</MEAN_ELEMENT_THEORY></metadata><data><meanElements><EPOCH>2025-07-02T14:40:04.213632</EPOCH><MEAN_MOTION>14.45404008</MEAN_MOTION><ECCENTRICITY>.0005404</ECCENTRICITY><INCLINATION>45.0152</INCLINATION><RA_OF_ASC_NODE>296.6380</RA_OF_ASC_NODE><ARG_OF_PERICENTER>269.9927</ARG_OF_PERICENTER><MEAN_ANOMALY>90.0305</MEAN_ANOMALY></meanElements><tleParameters><EPHEMERIS_TYPE>0</EPHEMERIS_TYPE><CLASSIFICATION_TYPE>U</CLASSIFICATION_TYPE><NORAD_CAT_ID>25115</NORAD_CAT_ID><ELEMENT_SET_NO>999</ELEMENT_SET_NO><REV_AT_EPOCH>44350</REV_AT_EPOCH><BSTAR>.26781E-3</BSTAR><MEAN_MOTION_DOT>.807E-5</MEAN_MOTION_DOT><MEAN_MOTION_DDOT>0</MEAN_MOTION_DDOT></tleParameters></data></segment></body></omm>
<omm id="CCSDS_OMM_VERS" version="2.0">
<header><CREATION_DATE/><ORIGINATOR/></header><body><segment><metadata><OBJECT_NAME>ORBCOMM FM09</OBJECT_NAME><OBJECT_ID>1997-084E</OBJECT_ID><CENTER_NAME>EARTH</CENTER_NAME><REF_FRAME>TEME</REF_FRAME><TIME_SYSTEM>UTC</TIME_SYSTEM><MEAN_ELEMENT_THEORY>SGP4</MEAN_ELEMENT_THEORY></metadata><data><meanElements><EPOCH>2025-07-02T13:48:58.701024</EPOCH><MEAN_MOTION>14.45279079</MEAN_MOTION><ECCENTRICITY>.0006901</ECCENTRICITY><INCLINATION>45.0158</INCLINATION><RA_OF_ASC_NODE>297.7563</RA_OF_ASC_NODE><ARG_OF_PERICENTER>264.8883</ARG_OF_PERICENTER><MEAN_ANOMALY>95.1181</MEAN_ANOMALY></meanElements><tleParameters><EPHEMERIS_TYPE>0</EPHEMERIS_TYPE><CLASSIFICATION_TYPE>U</CLASSIFICATION_TYPE><NORAD_CAT_ID>25116</NORAD_CAT_ID><ELEMENT_SET_NO>999</ELEMENT_SET_NO><REV_AT_EPOCH>44373</REV_AT_EPOCH><BSTAR>.26974E-3</BSTAR><MEAN_MOTION_DOT>.811E-5</MEAN_MOTION_DOT><MEAN_MOTION_DDOT>0</MEAN_MOTION_DDOT></tleParameters></data></segment></body></omm>

</ndm>
