ORBCOMM-X               
1 21576U 91050C   25184.18396028  .00000224  00000+0  79157-4 0  9993
2 21576  98.3428 250.4571 0004632 127.4218 232.7394 14.43272208784643
ORBCOMM FM01            
1 23545U 95017A   25184.04167055  .00003939  00000+0  41437-3 0  9994
2 23545  69.9641  34.5958 0005356 274.9490  85.1053 14.90199830615226
ORBCOMM FM02            
1 23546U 95017B   25184.04216409  .00004311  00000+0  44276-3 0  9992
2 23546  69.9651  53.9350 0006785 277.8807  82.1578 14.91088514614821
ORBCOMM FM08            
1 25112U 97084A   25184.55654902  .00000843  00000+0  27569-3 0  9991
2 25112  45.0147 289.2832 0005962 311.8877  48.1465 14.45847660443919
ORBCOMM FM10            
1 25113U 97084B   25184.33274179  .00000835  00000+0  27465-3 0  9998
2 25113  45.0160 292.7661 0005569 274.9351  85.0864 14.45635574443869
ORBCOMM FM11            
1 25114U 97084C   25184.34008536  .00000867  00000+0  28481-3 0  9996
2 25114  45.0144 293.3928 0006255 278.7754  81.2388 14.45384780443844
ORBCOMM FM12            
1 25115U 97084D   25183.61115988  .00000807  00000+0  26781-3 0  9991
2 25115  45.0152 296.6380 0005404 269.9927  90.0305 14.45404008443507
ORBCOMM FM09            
1 25116U 97084E   25183.57567941  .00000811  00000+0  26974-3 0  9996
2 25116  45.0158 297.7563 0006901 264.8883  95.1181 14.45279079443738
